ORBCOMM-X               
1 21576U 91050C   24268.19015079  .00000824  00000+0  26042-3 0  9990
2 21576  98.3803 333.7865 0002451 268.3304  91.7605 14.42752841743759
ORBCOMM FM01            
1 23545U 95017A   24268.58560865  .00014037  00000+0  17283-2 0  9993
2 23545  69.9686  13.3774 0005801 344.1846  15.9123 14.83050898573028
ORBCOMM FM02            
1 23546U 95017B   24268.51049184  .00014812  00000+0  18351-2 0  9991
2 23546  69.9695  33.1904 0007352 345.7710  14.3232 14.82767646572651
ORBCOMM FM08            
1 25112U 97084A   24268.82174038  .00004468  00000+0  13457-2 0  9997
2 25112  45.0132 199.9271 0008143 349.2421  10.8255 14.43626505403168
ORBCOMM FM10            
1 25113U 97084B   24268.56205746  .00004246  00000+0  12843-2 0  9992
2 25113  45.0142 203.1531 0005919 322.3086  37.7349 14.43502025403111
ORBCOMM FM11            
1 25114U 97084C   24268.52485330  .00003967  00000+0  12071-2 0  9990
2 25114  45.0128 203.5307 0006761 321.8583  38.1789 14.43322605403064
ORBCOMM FM12            
1 25115U 97084D   24268.28066031  .00001383  00000+0  44902-3 0  9996
2 25115  45.0146 204.4429 0005870 321.6145  38.4287 14.43288268402827
ORBCOMM FM09            
1 25116U 97084E   24268.84931784  .00003639  00000+0  11127-2 0  9993
2 25116  45.0140 202.4544 0006694 310.1857  49.8407 14.43242205403143
